[{"OBJECT_NAME":"NUSAT-48 (HENRIETTA LEAVITT)","OBJECT_ID":"2024-149AG","EPOCH":"2026-03-09T19:19:17.269536","MEAN_MOTION":15.29812597,"ECCENTRICITY":0.00027538,"INCLINATION":97.3923,"RA_OF_ASC_NODE":150.8264,"ARG_OF_PERICENTER":263.3026,"MEAN_ANOMALY":96.7901,"EPHEMERIS_TYPE":0,"CLASSIFICATION_TYPE":"U","NORAD_CAT_ID":60498,"ELEMENT_SET_NO":999,"REV_AT_EPOCH":8694,"BSTAR":0.00045211745,"MEAN_MOTION_DOT":0.00012988,"MEAN_MOTION_DDOT":0},{"OBJECT_NAME":"STARLINK-35127","OBJECT_ID":"2025-210T","EPOCH":"2026-03-09T21:19:15.346848","MEAN_MOTION":15.30210805,"ECCENTRICITY":0.00010617,"INCLINATION":53.1573,"RA_OF_ASC_NODE":306.0042,"ARG_OF_PERICENTER":114.3002,"MEAN_ANOMALY":245.811,"EPHEMERIS_TYPE":0,"CLASSIFICATION_TYPE":"U","NORAD_CAT_ID":65639,"ELEMENT_SET_NO":999,"REV_AT_EPOCH":2776,"BSTAR":0.0008981067,"MEAN_MOTION_DOT":0.00026343,"MEAN_MOTION_DDOT":0}]
